[{"OBJECT_NAME":"STARLINK-2213","OBJECT_ID":"2021-017BL","EPOCH":"2026-03-09T15:45:02.208384","MEAN_MOTION":15.30203136,"ECCENTRICITY":0.00011135,"INCLINATION":53.1589,"RA_OF_ASC_NODE":203.9945,"ARG_OF_PERICENTER":71.0225,"MEAN_ANOMALY":289.0897,"EPHEMERIS_TYPE":0,"CLASSIFICATION_TYPE":"U","NORAD_CAT_ID":47780,"ELEMENT_SET_NO":999,"REV_AT_EPOCH":27789,"BSTAR":0.00070253511,"MEAN_MOTION_DOT":0.00020507,"MEAN_MOTION_DDOT":0},{"OBJECT_NAME":"OBJECT A","OBJECT_ID":"2023-104A","EPOCH":"2026-03-06T18:47:13.750656","MEAN_MOTION":15.33350758,"ECCENTRICITY":0.00093331,"INCLINATION":97.2792,"RA_OF_ASC_NODE":135.5625,"ARG_OF_PERICENTER":122.1915,"MEAN_ANOMALY":238.0234,"EPHEMERIS_TYPE":0,"CLASSIFICATION_TYPE":"U","NORAD_CAT_ID":57424,"ELEMENT_SET_NO":999,"REV_AT_EPOCH":14634,"BSTAR":0.00048200218,"MEAN_MOTION_DOT":0.00015492,"MEAN_MOTION_DDOT":0}]
